[{"OBJECT_NAME":"ROBUSTA-3A (MEDITERRANEE)","OBJECT_ID":"2024-128J","EPOCH":"2026-03-02T21:50:23.689824","MEAN_MOTION":15.09890417,"ECCENTRICITY":0.0052439,"INCLINATION":61.9851,"RA_OF_ASC_NODE":223.598,"ARG_OF_PERICENTER":107.1628,"MEAN_ANOMALY":253.5217,"EPHEMERIS_TYPE":0,"CLASSIFICATION_TYPE":"U","NORAD_CAT_ID":60243,"ELEMENT_SET_NO":999,"REV_AT_EPOCH":9036,"BSTAR":0.00068092,"MEAN_MOTION_DOT":0.00011245,"MEAN_MOTION_DDOT":0},{"OBJECT_NAME":"LASARSAT","OBJECT_ID":"2024-247Q","EPOCH":"2026-03-03T04:45:39.879936","MEAN_MOTION":15.39670734,"ECCENTRICITY":0.0002946,"INCLINATION":44.9762,"RA_OF_ASC_NODE":134.8764,"ARG_OF_PERICENTER":344.9527,"MEAN_ANOMALY":15.1273,"EPHEMERIS_TYPE":0,"CLASSIFICATION_TYPE":"U","NORAD_CAT_ID":62391,"ELEMENT_SET_NO":999,"REV_AT_EPOCH":6694,"BSTAR":0.00084764,"MEAN_MOTION_DOT":0.00033989,"MEAN_MOTION_DDOT":0},{"OBJECT_NAME":"CROCUBE","OBJECT_ID":"2024-247T","EPOCH":"2026-03-02T06:14:53.404512","MEAN_MOTION":15.40697026,"ECCENTRICITY":0.00032125,"INCLINATION":44.9736,"RA_OF_ASC_NODE":138.7841,"ARG_OF_PERICENTER":324.6496,"MEAN_ANOMALY":35.4178,"EPHEMERIS_TYPE":0,"CLASSIFICATION_TYPE":"U","NORAD_CAT_ID":62394,"ELEMENT_SET_NO":999,"REV_AT_EPOCH":6681,"BSTAR":0.00093069988,"MEAN_MOTION_DOT":0.00038674,"MEAN_MOTION_DDOT":0}]
