ROBUSTA-3A (MEDITERRAN*)
1 60243U 24128J   26061.90999641  .00011245  00000+0  68092-3 0  9994
2 60243  61.9851 223.5980 0052439 107.1628 253.5217 15.09890417 90361
LASARSAT                
1 62391U 24247Q   26062.19837824  .00033989  00000+0  84764-3 0  9991
2 62391  44.9762 134.8764 0002946 344.9527  15.1273 15.39670734 66942
CROCUBE                 
1 62394U 24247T   26061.26034033  .00038674  00000+0  93070-3 0  9998
2 62394  44.9736 138.7841 0003212 324.6496  35.4178 15.40697026 66812
